[{"OBJECT_NAME":"STARLINK-34132","OBJECT_ID":"2025-107Y","EPOCH":"2026-03-09T09:32:06.350208","MEAN_MOTION":15.2760526,"ECCENTRICITY":0.00032789,"INCLINATION":42.9988,"RA_OF_ASC_NODE":203.3747,"ARG_OF_PERICENTER":293.6744,"MEAN_ANOMALY":66.3764,"EPHEMERIS_TYPE":0,"CLASSIFICATION_TYPE":"U","NORAD_CAT_ID":64086,"ELEMENT_SET_NO":999,"REV_AT_EPOCH":4604,"BSTAR":0.0013698411,"MEAN_MOTION_DOT":0.00037658,"MEAN_MOTION_DDOT":0},{"OBJECT_NAME":"BREEZE-M DEB [TANK]","OBJECT_ID":"2007-009B","EPOCH":"2026-03-09T04:40:40.373472","MEAN_MOTION":4.93987759,"ECCENTRICITY":0.54108445,"INCLINATION":49.3737,"RA_OF_ASC_NODE":186.5697,"ARG_OF_PERICENTER":42.4357,"MEAN_ANOMALY":348.6281,"EPHEMERIS_TYPE":0,"CLASSIFICATION_TYPE":"U","NORAD_CAT_ID":31103,"ELEMENT_SET_NO":999,"REV_AT_EPOCH":32627,"BSTAR":0.00047254551,"MEAN_MOTION_DOT":2.267e-5,"MEAN_MOTION_DDOT":0}]
